{
  "type": "FeatureCollection",
  "name": "최종 top7 스마트 횡단보도 후보의 중구 내 영향 분포",
  "features": [
    {
      "type": "Feature",
      "geometry": {
        "type": "Point",
        "coordinates": [
          126.981991,
          37.56050303
        ]
      },
      "properties": {
        "crosswalk_id": "LINK_194891",
        "rank": 1,
        "dong_name": "회현동2가",
        "group": "signal_fix_9",
        "n_seeds": 30,
        "selection_score": 52.77,
        "selection_reason": "차량 지체 증가 적음",
        "tls_id_used": "11203052965",
        "mapping_status": "link_type",
        "tls_ok": true,
        "ped_route_ok": true,
        "delta_ped_wait_time_mean_mean": 0.0,
        "smart_total_extension_sec_mean": 5.0,
        "delta_veh_delay_mean_mean": -3.082,
        "baseline_local_500m_vehicle_count_mean": 467.633
      }
    },
    {
      "type": "Feature",
      "geometry": {
        "type": "Polygon",
        "coordinates": [
          [
            [
              126.987657,
              37.560503
            ],
            [
              126.987571,
              37.561283
            ],
            [
              126.987315,
              37.562039
            ],
            [
              126.986898,
              37.562749
            ],
            [
              126.986331,
              37.56339
            ],
            [
              126.985633,
              37.563944
            ],
            [
              126.984824,
              37.564393
            ],
            [
              126.983929,
              37.564724
            ],
            [
              126.982975,
              37.564926
            ],
            [
              126.981991,
              37.564995
            ],
            [
              126.981007,
              37.564926
            ],
            [
              126.980053,
              37.564724
            ],
            [
              126.979158,
              37.564393
            ],
            [
              126.978349,
              37.563944
            ],
            [
              126.977651,
              37.56339
            ],
            [
              126.977084,
              37.562749
            ],
            [
              126.976667,
              37.562039
            ],
            [
              126.976411,
              37.561283
            ],
            [
              126.976325,
              37.560503
            ],
            [
              126.976411,
              37.559723
            ],
            [
              126.976667,
              37.558967
            ],
            [
              126.977084,
              37.558257
            ],
            [
              126.977651,
              37.557616
            ],
            [
              126.978349,
              37.557062
            ],
            [
              126.979158,
              37.556613
            ],
            [
              126.980053,
              37.556282
            ],
            [
              126.981007,
              37.55608
            ],
            [
              126.981991,
              37.556011
            ],
            [
              126.982975,
              37.55608
            ],
            [
              126.983929,
              37.556282
            ],
            [
              126.984824,
              37.556613
            ],
            [
              126.985633,
              37.557062
            ],
            [
              126.986331,
              37.557616
            ],
            [
              126.986898,
              37.558257
            ],
            [
              126.987315,
              37.558967
            ],
            [
              126.987571,
              37.559723
            ],
            [
              126.987657,
              37.560503
            ]
          ]
        ]
      },
      "properties": {
        "crosswalk_id": "LINK_194891",
        "rank": 1,
        "feature_type": "buffer_500m",
        "dong_name": "회현동2가",
        "delta_ped_wait": 0.0
      }
    },
    {
      "type": "Feature",
      "geometry": {
        "type": "Point",
        "coordinates": [
          126.9809132,
          37.56221627
        ]
      },
      "properties": {
        "crosswalk_id": "NODE_10262",
        "rank": 2,
        "dong_name": "남대문로3가",
        "group": "signal_fix_9",
        "n_seeds": 30,
        "selection_score": 50.86,
        "selection_reason": "차량 지체 증가 적음",
        "tls_id_used": "11203041635",
        "mapping_status": "distant",
        "tls_ok": true,
        "ped_route_ok": true,
        "delta_ped_wait_time_mean_mean": 0.0,
        "smart_total_extension_sec_mean": 5.0,
        "delta_veh_delay_mean_mean": -2.707,
        "baseline_local_500m_vehicle_count_mean": 582.867
      }
    },
    {
      "type": "Feature",
      "geometry": {
        "type": "Polygon",
        "coordinates": [
          [
            [
              126.986579,
              37.562216
            ],
            [
              126.986493,
              37.562996
            ],
            [
              126.986238,
              37.563752
            ],
            [
              126.98582,
              37.564462
            ],
            [
              126.985254,
              37.565103
            ],
            [
              126.984555,
              37.565657
            ],
            [
              126.983746,
              37.566106
            ],
            [
              126.982851,
              37.566437
            ],
            [
              126.981897,
              37.56664
            ],
            [
              126.980913,
              37.566708
            ],
            [
              126.979929,
              37.56664
            ],
            [
              126.978975,
              37.566437
            ],
            [
              126.97808,
              37.566106
            ],
            [
              126.977271,
              37.565657
            ],
            [
              126.976573,
              37.565103
            ],
            [
              126.976006,
              37.564462
            ],
            [
              126.975589,
              37.563752
            ],
            [
              126.975333,
              37.562996
            ],
            [
              126.975247,
              37.562216
            ],
            [
              126.975333,
              37.561436
            ],
            [
              126.975589,
              37.56068
            ],
            [
              126.976006,
              37.55997
            ],
            [
              126.976573,
              37.559329
            ],
            [
              126.977271,
              37.558776
            ],
            [
              126.97808,
              37.558326
            ],
            [
              126.978975,
              37.557996
            ],
            [
              126.979929,
              37.557793
            ],
            [
              126.980913,
              37.557725
            ],
            [
              126.981897,
              37.557793
            ],
            [
              126.982851,
              37.557996
            ],
            [
              126.983746,
              37.558326
            ],
            [
              126.984555,
              37.558776
            ],
            [
              126.985254,
              37.559329
            ],
            [
              126.98582,
              37.55997
            ],
            [
              126.986238,
              37.56068
            ],
            [
              126.986493,
              37.561436
            ],
            [
              126.986579,
              37.562216
            ]
          ]
        ]
      },
      "properties": {
        "crosswalk_id": "NODE_10262",
        "rank": 2,
        "feature_type": "buffer_500m",
        "dong_name": "남대문로3가",
        "delta_ped_wait": 0.0
      }
    },
    {
      "type": "Feature",
      "geometry": {
        "type": "Point",
        "coordinates": [
          127.0113222,
          37.55370169
        ]
      },
      "properties": {
        "crosswalk_id": "NODE_125895",
        "rank": 3,
        "dong_name": "신당동",
        "group": "current_main_12",
        "n_seeds": 30,
        "selection_score": 49.07,
        "selection_reason": "종합 점수 상위",
        "tls_id_used": "1936511299",
        "mapping_status": "distant",
        "tls_ok": true,
        "ped_route_ok": true,
        "delta_ped_wait_time_mean_mean": 0.0,
        "smart_total_extension_sec_mean": 5.0,
        "delta_veh_delay_mean_mean": -0.203,
        "baseline_local_500m_vehicle_count_mean": 342.0
      }
    },
    {
      "type": "Feature",
      "geometry": {
        "type": "Polygon",
        "coordinates": [
          [
            [
              127.016988,
              37.553702
            ],
            [
              127.016902,
              37.554482
            ],
            [
              127.016646,
              37.555238
            ],
            [
              127.016229,
              37.555947
            ],
            [
              127.015662,
              37.556589
            ],
            [
              127.014964,
              37.557142
            ],
            [
              127.014155,
              37.557591
            ],
            [
              127.01326,
              37.557922
            ],
            [
              127.012306,
              37.558125
            ],
            [
              127.011322,
              37.558193
            ],
            [
              127.010338,
              37.558125
            ],
            [
              127.009384,
              37.557922
            ],
            [
              127.008489,
              37.557591
            ],
            [
              127.00768,
              37.557142
            ],
            [
              127.006982,
              37.556589
            ],
            [
              127.006416,
              37.555947
            ],
            [
              127.005998,
              37.555238
            ],
            [
              127.005743,
              37.554482
            ],
            [
              127.005657,
              37.553702
            ],
            [
              127.005743,
              37.552922
            ],
            [
              127.005998,
              37.552165
            ],
            [
              127.006416,
              37.551456
            ],
            [
              127.006982,
              37.550815
            ],
            [
              127.00768,
              37.550261
            ],
            [
              127.008489,
              37.549812
            ],
            [
              127.009384,
              37.549481
            ],
            [
              127.010338,
              37.549278
            ],
            [
              127.011322,
              37.54921
            ],
            [
              127.012306,
              37.549278
            ],
            [
              127.01326,
              37.549481
            ],
            [
              127.014155,
              37.549812
            ],
            [
              127.014964,
              37.550261
            ],
            [
              127.015662,
              37.550815
            ],
            [
              127.016229,
              37.551456
            ],
            [
              127.016646,
              37.552165
            ],
            [
              127.016902,
              37.552922
            ],
            [
              127.016988,
              37.553702
            ]
          ]
        ]
      },
      "properties": {
        "crosswalk_id": "NODE_125895",
        "rank": 3,
        "feature_type": "buffer_500m",
        "dong_name": "신당동",
        "delta_ped_wait": 0.0
      }
    },
    {
      "type": "Feature",
      "geometry": {
        "type": "Point",
        "coordinates": [
          126.9738954,
          37.55870203
        ]
      },
      "properties": {
        "crosswalk_id": "NODE_5831",
        "rank": 4,
        "dong_name": "남대문로5가",
        "group": "current_main_12",
        "n_seeds": 30,
        "selection_score": 48.99,
        "selection_reason": "안전 지표 개선",
        "tls_id_used": "5593950698",
        "mapping_status": "exact",
        "tls_ok": true,
        "ped_route_ok": true,
        "smart_total_extension_sec_mean": 5.0,
        "delta_veh_delay_mean_mean": 1.535,
        "baseline_local_500m_vehicle_count_mean": 644.733
      }
    },
    {
      "type": "Feature",
      "geometry": {
        "type": "Polygon",
        "coordinates": [
          [
            [
              126.979561,
              37.558702
            ],
            [
              126.979475,
              37.559482
            ],
            [
              126.97922,
              37.560238
            ],
            [
              126.978802,
              37.560948
            ],
            [
              126.978236,
              37.561589
            ],
            [
              126.977537,
              37.562143
            ],
            [
              126.976728,
              37.562592
            ],
            [
              126.975833,
              37.562923
            ],
            [
              126.974879,
              37.563125
            ],
            [
              126.973895,
              37.563194
            ],
            [
              126.972912,
              37.563125
            ],
            [
              126.971958,
              37.562923
            ],
            [
              126.971062,
              37.562592
            ],
            [
              126.970253,
              37.562143
            ],
            [
              126.969555,
              37.561589
            ],
            [
              126.968989,
              37.560948
            ],
            [
              126.968571,
              37.560238
            ],
            [
              126.968316,
              37.559482
            ],
            [
              126.968229,
              37.558702
            ],
            [
              126.968316,
              37.557922
            ],
            [
              126.968571,
              37.557166
            ],
            [
              126.968989,
              37.556456
            ],
            [
              126.969555,
              37.555815
            ],
            [
              126.970253,
              37.555261
            ],
            [
              126.971062,
              37.554812
            ],
            [
              126.971958,
              37.554481
            ],
            [
              126.972912,
              37.554279
            ],
            [
              126.973895,
              37.55421
            ],
            [
              126.974879,
              37.554279
            ],
            [
              126.975833,
              37.554481
            ],
            [
              126.976728,
              37.554812
            ],
            [
              126.977537,
              37.555261
            ],
            [
              126.978236,
              37.555815
            ],
            [
              126.978802,
              37.556456
            ],
            [
              126.97922,
              37.557166
            ],
            [
              126.979475,
              37.557922
            ],
            [
              126.979561,
              37.558702
            ]
          ]
        ]
      },
      "properties": {
        "crosswalk_id": "NODE_5831",
        "rank": 4,
        "feature_type": "buffer_500m",
        "dong_name": "남대문로5가"
      }
    },
    {
      "type": "Feature",
      "geometry": {
        "type": "Point",
        "coordinates": [
          126.9738135,
          37.55874664
        ]
      },
      "properties": {
        "crosswalk_id": "LINK_239754",
        "rank": 5,
        "dong_name": "남대문로5가",
        "group": "current_main_12",
        "n_seeds": 30,
        "selection_score": 48.99,
        "selection_reason": "안전 지표 개선",
        "tls_id_used": "5593950698",
        "mapping_status": "link_type",
        "tls_ok": true,
        "ped_route_ok": true,
        "delta_ped_wait_time_mean_mean": 0.0,
        "smart_total_extension_sec_mean": 5.0,
        "delta_veh_delay_mean_mean": 1.535,
        "baseline_local_500m_vehicle_count_mean": 644.733
      }
    },
    {
      "type": "Feature",
      "geometry": {
        "type": "Polygon",
        "coordinates": [
          [
            [
              126.979479,
              37.558747
            ],
            [
              126.979393,
              37.559527
            ],
            [
              126.979138,
              37.560283
            ],
            [
              126.97872,
              37.560992
            ],
            [
              126.978154,
              37.561634
            ],
            [
              126.977455,
              37.562187
            ],
            [
              126.976646,
              37.562636
            ],
            [
              126.975751,
              37.562967
            ],
            [
              126.974797,
              37.56317
            ],
            [
              126.973814,
              37.563238
            ],
            [
              126.97283,
              37.56317
            ],
            [
              126.971876,
              37.562967
            ],
            [
              126.970981,
              37.562636
            ],
            [
              126.970172,
              37.562187
            ],
            [
              126.969473,
              37.561634
            ],
            [
              126.968907,
              37.560992
            ],
            [
              126.968489,
              37.560283
            ],
            [
              126.968234,
              37.559527
            ],
            [
              126.968148,
              37.558747
            ],
            [
              126.968234,
              37.557967
            ],
            [
              126.968489,
              37.55721
            ],
            [
              126.968907,
              37.556501
            ],
            [
              126.969473,
              37.55586
            ],
            [
              126.970172,
              37.555306
            ],
            [
              126.970981,
              37.554857
            ],
            [
              126.971876,
              37.554526
            ],
            [
              126.97283,
              37.554323
            ],
            [
              126.973814,
              37.554255
            ],
            [
              126.974797,
              37.554323
            ],
            [
              126.975751,
              37.554526
            ],
            [
              126.976646,
              37.554857
            ],
            [
              126.977455,
              37.555306
            ],
            [
              126.978154,
              37.55586
            ],
            [
              126.97872,
              37.556501
            ],
            [
              126.979138,
              37.55721
            ],
            [
              126.979393,
              37.557967
            ],
            [
              126.979479,
              37.558747
            ]
          ]
        ]
      },
      "properties": {
        "crosswalk_id": "LINK_239754",
        "rank": 5,
        "feature_type": "buffer_500m",
        "dong_name": "남대문로5가",
        "delta_ped_wait": 0.0
      }
    },
    {
      "type": "Feature",
      "geometry": {
        "type": "Point",
        "coordinates": [
          126.9739357,
          37.55874323
        ]
      },
      "properties": {
        "crosswalk_id": "NODE_5846",
        "rank": 6,
        "dong_name": "남대문로5가",
        "group": "current_main_12",
        "n_seeds": 30,
        "selection_score": 48.99,
        "selection_reason": "안전 지표 개선",
        "tls_id_used": "5593950698",
        "mapping_status": "exact",
        "tls_ok": true,
        "ped_route_ok": true,
        "smart_total_extension_sec_mean": 5.0,
        "delta_veh_delay_mean_mean": 1.535,
        "baseline_local_500m_vehicle_count_mean": 644.733
      }
    },
    {
      "type": "Feature",
      "geometry": {
        "type": "Polygon",
        "coordinates": [
          [
            [
              126.979602,
              37.558743
            ],
            [
              126.979516,
              37.559523
            ],
            [
              126.97926,
              37.560279
            ],
            [
              126.978843,
              37.560989
            ],
            [
              126.978276,
              37.56163
            ],
            [
              126.977578,
              37.562184
            ],
            [
              126.976769,
              37.562633
            ],
            [
              126.975874,
              37.562964
            ],
            [
              126.97492,
              37.563167
            ],
            [
              126.973936,
              37.563235
            ],
            [
              126.972952,
              37.563167
            ],
            [
              126.971998,
              37.562964
            ],
            [
              126.971103,
              37.562633
            ],
            [
              126.970294,
              37.562184
            ],
            [
              126.969595,
              37.56163
            ],
            [
              126.969029,
              37.560989
            ],
            [
              126.968611,
              37.560279
            ],
            [
              126.968356,
              37.559523
            ],
            [
              126.96827,
              37.558743
            ],
            [
              126.968356,
              37.557963
            ],
            [
              126.968611,
              37.557207
            ],
            [
              126.969029,
              37.556497
            ],
            [
              126.969595,
              37.555856
            ],
            [
              126.970294,
              37.555302
            ],
            [
              126.971103,
              37.554853
            ],
            [
              126.971998,
              37.554523
            ],
            [
              126.972952,
              37.55432
            ],
            [
              126.973936,
              37.554252
            ],
            [
              126.97492,
              37.55432
            ],
            [
              126.975874,
              37.554523
            ],
            [
              126.976769,
              37.554853
            ],
            [
              126.977578,
              37.555302
            ],
            [
              126.978276,
              37.555856
            ],
            [
              126.978843,
              37.556497
            ],
            [
              126.97926,
              37.557207
            ],
            [
              126.979516,
              37.557963
            ],
            [
              126.979602,
              37.558743
            ]
          ]
        ]
      },
      "properties": {
        "crosswalk_id": "NODE_5846",
        "rank": 6,
        "feature_type": "buffer_500m",
        "dong_name": "남대문로5가"
      }
    },
    {
      "type": "Feature",
      "geometry": {
        "type": "Point",
        "coordinates": [
          127.0116327,
          37.55385957
        ]
      },
      "properties": {
        "crosswalk_id": "NODE_8369",
        "rank": 7,
        "dong_name": "신당동",
        "group": "current_main_12",
        "n_seeds": 30,
        "selection_score": 47.25,
        "selection_reason": "종합 점수 상위",
        "tls_id_used": "1936511299",
        "mapping_status": "distant",
        "tls_ok": true,
        "ped_route_ok": true,
        "delta_ped_wait_time_mean_mean": 0.0,
        "smart_total_extension_sec_mean": 5.0,
        "delta_veh_delay_mean_mean": -0.203,
        "baseline_local_500m_vehicle_count_mean": 341.533
      }
    },
    {
      "type": "Feature",
      "geometry": {
        "type": "Polygon",
        "coordinates": [
          [
            [
              127.017298,
              37.55386
            ],
            [
              127.017212,
              37.55464
            ],
            [
              127.016957,
              37.555396
            ],
            [
              127.016539,
              37.556105
            ],
            [
              127.015973,
              37.556747
            ],
            [
              127.015274,
              37.5573
            ],
            [
              127.014465,
              37.557749
            ],
            [
              127.01357,
              37.55808
            ],
            [
              127.012617,
              37.558283
            ],
            [
              127.011633,
              37.558351
            ],
            [
              127.010649,
              37.558283
            ],
            [
              127.009695,
              37.55808
            ],
            [
              127.0088,
              37.557749
            ],
            [
              127.007991,
              37.5573
            ],
            [
              127.007293,
              37.556747
            ],
            [
              127.006726,
              37.556105
            ],
            [
              127.006309,
              37.555396
            ],
            [
              127.006053,
              37.55464
            ],
            [
              127.005967,
              37.55386
            ],
            [
              127.006053,
              37.55308
            ],
            [
              127.006309,
              37.552323
            ],
            [
              127.006726,
              37.551614
            ],
            [
              127.007293,
              37.550972
            ],
            [
              127.007991,
              37.550419
            ],
            [
              127.0088,
              37.54997
            ],
            [
              127.009695,
              37.549639
            ],
            [
              127.010649,
              37.549436
            ],
            [
              127.011633,
              37.549368
            ],
            [
              127.012617,
              37.549436
            ],
            [
              127.01357,
              37.549639
            ],
            [
              127.014465,
              37.54997
            ],
            [
              127.015274,
              37.550419
            ],
            [
              127.015973,
              37.550972
            ],
            [
              127.016539,
              37.551614
            ],
            [
              127.016957,
              37.552323
            ],
            [
              127.017212,
              37.55308
            ],
            [
              127.017298,
              37.55386
            ]
          ]
        ]
      },
      "properties": {
        "crosswalk_id": "NODE_8369",
        "rank": 7,
        "feature_type": "buffer_500m",
        "dong_name": "신당동",
        "delta_ped_wait": 0.0
      }
    }
  ]
}